[{"OBJECT_NAME":"STARLINK-36799","OBJECT_ID":"2026-037AC","EPOCH":"2026-03-05T06:00:02.999808","MEAN_MOTION":15.96212849,"ECCENTRICITY":0.00016291,"INCLINATION":43,"RA_OF_ASC_NODE":225.7978,"ARG_OF_PERICENTER":275.3988,"MEAN_ANOMALY":234.3054,"EPHEMERIS_TYPE":0,"CLASSIFICATION_TYPE":"U","NORAD_CAT_ID":67958,"ELEMENT_SET_NO":999,"REV_AT_EPOCH":248,"BSTAR":-0.0035312861,"MEAN_MOTION_DOT":-0.01515828,"MEAN_MOTION_DDOT":0.00067459107},{"OBJECT_NAME":"STARLINK-36834","OBJECT_ID":"2026-037AD","EPOCH":"2026-03-05T06:00:02.999808","MEAN_MOTION":15.96462796,"ECCENTRICITY":0.00013743,"INCLINATION":43.0002,"RA_OF_ASC_NODE":225.7841,"ARG_OF_PERICENTER":272.9119,"MEAN_ANOMALY":242.1029,"EPHEMERIS_TYPE":0,"CLASSIFICATION_TYPE":"U","NORAD_CAT_ID":67959,"ELEMENT_SET_NO":999,"REV_AT_EPOCH":248,"BSTAR":-0.0034930101,"MEAN_MOTION_DOT":-0.01519961,"MEAN_MOTION_DDOT":0.00067971857},{"OBJECT_NAME":"STARLINK-36841","OBJECT_ID":"2026-037AE","EPOCH":"2026-03-05T06:00:02.999808","MEAN_MOTION":15.96339483,"ECCENTRICITY":0.00015726,"INCLINATION":43,"RA_OF_ASC_NODE":225.7911,"ARG_OF_PERICENTER":268.923,"MEAN_ANOMALY":243.2937,"EPHEMERIS_TYPE":0,"CLASSIFICATION_TYPE":"U","NORAD_CAT_ID":67960,"ELEMENT_SET_NO":999,"REV_AT_EPOCH":248,"BSTAR":-0.003521243,"MEAN_MOTION_DOT":-0.01521942,"MEAN_MOTION_DDOT":0.00068048722},{"OBJECT_NAME":"STARLINK-36912","OBJECT_ID":"2026-038A","EPOCH":"2026-03-05T06:00:02.999808","MEAN_MOTION":16.01401041,"ECCENTRICITY":0.00011802,"INCLINATION":97.2767,"RA_OF_ASC_NODE":74.1735,"ARG_OF_PERICENTER":71.5802,"MEAN_ANOMALY":51.4237,"EPHEMERIS_TYPE":0,"CLASSIFICATION_TYPE":"U","NORAD_CAT_ID":67961,"ELEMENT_SET_NO":999,"REV_AT_EPOCH":248,"BSTAR":-0.0027592307,"MEAN_MOTION_DOT":-0.01503486,"MEAN_MOTION_DDOT":0.00070852477},{"OBJECT_NAME":"STARLINK-36881","OBJECT_ID":"2026-038B","EPOCH":"2026-03-05T06:00:02.999808","MEAN_MOTION":16.01463096,"ECCENTRICITY":0.00010314,"INCLINATION":97.2764,"RA_OF_ASC_NODE":74.1741,"ARG_OF_PERICENTER":80.8223,"MEAN_ANOMALY":43.9157,"EPHEMERIS_TYPE":0,"CLASSIFICATION_TYPE":"U","NORAD_CAT_ID":67962,"ELEMENT_SET_NO":999,"REV_AT_EPOCH":248,"BSTAR":-0.0026980301,"MEAN_MOTION_DOT":-0.01475689,"MEAN_MOTION_DDOT":0.00068487331},{"OBJECT_NAME":"STARLINK-36357","OBJECT_ID":"2026-038C","EPOCH":"2026-03-05T06:00:02.999808","MEAN_MOTION":16.01712876,"ECCENTRICITY":0.00011133,"INCLINATION":97.2763,"RA_OF_ASC_NODE":74.1763,"ARG_OF_PERICENTER":79.9159,"MEAN_ANOMALY":49.351,"EPHEMERIS_TYPE":0,"CLASSIFICATION_TYPE":"U","NORAD_CAT_ID":67963,"ELEMENT_SET_NO":999,"REV_AT_EPOCH":248,"BSTAR":-0.0026966352,"MEAN_MOTION_DOT":-0.01496089,"MEAN_MOTION_DDOT":0.00070458731},{"OBJECT_NAME":"STARLINK-36349","OBJECT_ID":"2026-038D","EPOCH":"2026-03-05T06:00:02.999808","MEAN_MOTION":16.01604241,"ECCENTRICITY":0.00011417,"INCLINATION":97.2762,"RA_OF_ASC_NODE":74.175,"ARG_OF_PERICENTER":87.3923,"MEAN_ANOMALY":39.5994,"EPHEMERIS_TYPE":0,"CLASSIFICATION_TYPE":"U","NORAD_CAT_ID":67964,"ELEMENT_SET_NO":999,"REV_AT_EPOCH":248,"BSTAR":-0.0027375157,"MEAN_MOTION_DOT":-0.01509131,"MEAN_MOTION_DDOT":0.00071514508},{"OBJECT_NAME":"STARLINK-36806","OBJECT_ID":"2026-038E","EPOCH":"2026-03-05T06:00:02.999808","MEAN_MOTION":16.01845107,"ECCENTRICITY":0.00012018,"INCLINATION":97.2758,"RA_OF_ASC_NODE":74.1773,"ARG_OF_PERICENTER":71.1612,"MEAN_ANOMALY":60.7284,"EPHEMERIS_TYPE":0,"CLASSIFICATION_TYPE":"U","NORAD_CAT_ID":67965,"ELEMENT_SET_NO":999,"REV_AT_EPOCH":248,"BSTAR":-0.0026587847,"MEAN_MOTION_DOT":-0.01486535,"MEAN_MOTION_DDOT":0.00069731747},{"OBJECT_NAME":"STARLINK-36820","OBJECT_ID":"2026-038F","EPOCH":"2026-03-05T06:00:02.999808","MEAN_MOTION":16.01958683,"ECCENTRICITY":0.00011331,"INCLINATION":97.2758,"RA_OF_ASC_NODE":74.1783,"ARG_OF_PERICENTER":85.4347,"MEAN_ANOMALY":48.6605,"EPHEMERIS_TYPE":0,"CLASSIFICATION_TYPE":"U","NORAD_CAT_ID":67966,"ELEMENT_SET_NO":999,"REV_AT_EPOCH":248,"BSTAR":-0.0026376302,"MEAN_MOTION_DOT":-0.01484442,"MEAN_MOTION_DDOT":0.00069640686},{"OBJECT_NAME":"STARLINK-36819","OBJECT_ID":"2026-038G","EPOCH":"2026-03-05T06:00:02.999808","MEAN_MOTION":16.02059631,"ECCENTRICITY":0.00012894,"INCLINATION":97.2757,"RA_OF_ASC_NODE":74.1791,"ARG_OF_PERICENTER":75.478,"MEAN_ANOMALY":61.0087,"EPHEMERIS_TYPE":0,"CLASSIFICATION_TYPE":"U","NORAD_CAT_ID":67967,"ELEMENT_SET_NO":999,"REV_AT_EPOCH":248,"BSTAR":-0.0025822426,"MEAN_MOTION_DOT":-0.01462093,"MEAN_MOTION_DDOT":0.00067785633},{"OBJECT_NAME":"STARLINK-36812","OBJECT_ID":"2026-038H","EPOCH":"2026-03-05T06:00:02.999808","MEAN_MOTION":16.0217665,"ECCENTRICITY":0.00012833,"INCLINATION":97.2754,"RA_OF_ASC_NODE":74.1798,"ARG_OF_PERICENTER":70.5866,"MEAN_ANOMALY":67.9384,"EPHEMERIS_TYPE":0,"CLASSIFICATION_TYPE":"U","NORAD_CAT_ID":67968,"ELEMENT_SET_NO":999,"REV_AT_EPOCH":248,"BSTAR":-0.002599087,"MEAN_MOTION_DOT":-0.01481429,"MEAN_MOTION_DDOT":0.00069554437},{"OBJECT_NAME":"STARLINK-36709","OBJECT_ID":"2026-038J","EPOCH":"2026-03-05T06:00:02.999808","MEAN_MOTION":16.02424841,"ECCENTRICITY":0.00010937,"INCLINATION":97.2754,"RA_OF_ASC_NODE":74.1821,"ARG_OF_PERICENTER":79.5053,"MEAN_ANOMALY":63.8638,"EPHEMERIS_TYPE":0,"CLASSIFICATION_TYPE":"U","NORAD_CAT_ID":67969,"ELEMENT_SET_NO":999,"REV_AT_EPOCH":248,"BSTAR":-0.0025480874,"MEAN_MOTION_DOT":-0.01473535,"MEAN_MOTION_DDOT":0.00069066642},{"OBJECT_NAME":"STARLINK-36319","OBJECT_ID":"2026-038K","EPOCH":"2026-03-05T06:00:02.999808","MEAN_MOTION":16.02306182,"ECCENTRICITY":0.00012419,"INCLINATION":97.2753,"RA_OF_ASC_NODE":74.1808,"ARG_OF_PERICENTER":71.0597,"MEAN_ANOMALY":69.8632,"EPHEMERIS_TYPE":0,"CLASSIFICATION_TYPE":"U","NORAD_CAT_ID":67970,"ELEMENT_SET_NO":999,"REV_AT_EPOCH":245,"BSTAR":-0.0025837084,"MEAN_MOTION_DOT":-0.01483757,"MEAN_MOTION_DDOT":0.00069862933},{"OBJECT_NAME":"STARLINK-36710","OBJECT_ID":"2026-038L","EPOCH":"2026-03-05T06:00:02.999808","MEAN_MOTION":16.02584508,"ECCENTRICITY":0.00011115,"INCLINATION":97.275,"RA_OF_ASC_NODE":74.1834,"ARG_OF_PERICENTER":72.9873,"MEAN_ANOMALY":73.3233,"EPHEMERIS_TYPE":0,"CLASSIFICATION_TYPE":"U","NORAD_CAT_ID":67971,"ELEMENT_SET_NO":999,"REV_AT_EPOCH":248,"BSTAR":-0.0025239774,"MEAN_MOTION_DOT":-0.01473257,"MEAN_MOTION_DDOT":0.00069171518},{"OBJECT_NAME":"STARLINK-36894","OBJECT_ID":"2026-038M","EPOCH":"2026-03-05T06:00:02.999808","MEAN_MOTION":16.02706831,"ECCENTRICITY":0.0001227,"INCLINATION":97.2748,"RA_OF_ASC_NODE":74.1843,"ARG_OF_PERICENTER":66.8947,"MEAN_ANOMALY":81.8576,"EPHEMERIS_TYPE":0,"CLASSIFICATION_TYPE":"U","NORAD_CAT_ID":67972,"ELEMENT_SET_NO":999,"REV_AT_EPOCH":248,"BSTAR":-0.0024941067,"MEAN_MOTION_DOT":-0.01466371,"MEAN_MOTION_DDOT":0.00068670643},{"OBJECT_NAME":"STARLINK-36900","OBJECT_ID":"2026-038N","EPOCH":"2026-03-05T06:00:02.999808","MEAN_MOTION":16.02930108,"ECCENTRICITY":0.00010546,"INCLINATION":97.2746,"RA_OF_ASC_NODE":74.1864,"ARG_OF_PERICENTER":78.1103,"MEAN_ANOMALY":75.5268,"EPHEMERIS_TYPE":0,"CLASSIFICATION_TYPE":"U","NORAD_CAT_ID":67973,"ELEMENT_SET_NO":999,"REV_AT_EPOCH":248,"BSTAR":-0.0023898847,"MEAN_MOTION_DOT":-0.01424046,"MEAN_MOTION_DDOT":0.00065206799}]
